{
    "links": {
        "self": "http://www.neowsapp.com/rest/v1/neo/3720875?api_key=iIulBulltgU6a56xZRHN4H3l9WmuAYTsLGpBGhQ2"
    },
    "id": "3720875",
    "neo_reference_id": "3720875",
    "name": "(2015 HY182)",
    "designation": "2015 HY182",
    "nasa_jpl_url": "http://ssd.jpl.nasa.gov/sbdb.cgi?sstr=3720875",
    "absolute_magnitude_h": 22.0,
    "estimated_diameter": {
        "kilometers": {
            "estimated_diameter_min": 0.1058168859,
            "estimated_diameter_max": 0.2366137501
        },
        "meters": {
            "estimated_diameter_min": 105.8168859331,
            "estimated_diameter_max": 236.6137501138
        },
        "miles": {
            "estimated_diameter_min": 0.0657515442,
            "estimated_diameter_max": 0.1470249225
        },
        "feet": {
            "estimated_diameter_min": 347.1682720448,
            "estimated_diameter_max": 776.2918559233
        }
    },
    "is_potentially_hazardous_asteroid": false,
    "close_approach_data": [
        {
            "close_approach_date": "2014-09-15",
            "close_approach_date_full": "2014-Sep-15 00:07",
            "epoch_date_close_approach": 1410739620000,
            "relative_velocity": {
                "kilometers_per_second": "16.9882472259",
                "kilometers_per_hour": "61157.6900132044",
                "miles_per_hour": "38001.0102195936"
            },
            "miss_distance": {
                "astronomical": "0.2672231763",
                "lunar": "103.9498155807",
                "kilometers": "39976017.989114481",
                "miles": "24839945.7348465978"
            },
            "orbiting_body": "Earth"
        }
    ],
    "orbital_data": {
        "orbit_id": "3",
        "orbit_determination_date": "2017-04-06 08:33:54",
        "first_observation_date": "2015-04-19",
        "last_observation_date": "2015-04-21",
        "data_arc_in_days": 2,
        "observations_used": 14,
        "orbit_uncertainty": "9",
        "minimum_orbit_intersection": ".257938",
        "jupiter_tisserand_invariant": "5.363",
        "epoch_osculation": "2457132.5",
        "eccentricity": ".368610391346394",
        "semi_major_axis": "1.141043812877585",
        "inclination": "22.79405881191759",
        "ascending_node_longitude": "18.29766203446369",
        "orbital_period": "445.1966702957214",
        "perihelion_distance": ".720443206469397",
        "perihelion_argument": "21.76255919819631",
        "aphelion_distance": "1.561644419285774",
        "perihelion_time": "2456941.893791050445",
        "mean_anomaly": "154.130162690256",
        "mean_motion": ".8086313847784854",
        "equinox": "J2000",
        "orbit_class": {
            "orbit_class_type": "APO",
            "orbit_class_description": "Near-Earth asteroid orbits which cross the Earth’s orbit similar to that of 1862 Apollo",
            "orbit_class_range": "a (semi-major axis) > 1.0 AU; q (perihelion) < 1.017 AU"
        }
    },
    "is_sentry_object": false
}